NORAD_CAT_ID,OBJECT_NAME,OBJECT_TYPE,EPOCH,MEAN_MOTION,ECCENTRICITY,INCLINATION,RA_OF_ASC_NODE,ARG_OF_PERICENTER,MEAN_ANOMALY,BSTAR,MEAN_MOTION_DOT,MEAN_MOTION_DDOT,TLE_LINE0,TLE_LINE1,TLE_LINE2,SEMIMAJOR_AXIS,PERIOD,APOGEE,PERIGEE,DECAYED
53536.0,STARLINK-4053,PAYLOAD,2022-09-09 22:00:00,15.731760500000002,0.0001609,53.2159,50.1922,29.478,294.1384,0.00017149,0.0002349,0.0,0 STARLINK-4053,1 53536U 22101K   22252.91667824  .00023490  00000-0  17149-3 0  9997,2 53536  53.2159  50.1922 0001609  29.4780 294.1384 15.73176050  1304,6727.9630000000025,91.535,350.911,348.746,0.0
53536.0,STARLINK-4053,PAYLOAD,2022-09-10 04:00:00,15.73217338,0.0001508,53.2163,48.9542,33.9286,266.4158,-0.0002648999999999,-0.00037659,0.0,0 STARLINK-4053,1 53536U 22101K   22253.16667824 -.00037659  00000-0 -26490-3 0  9998,2 53536  53.2163  48.9542 0001508  33.9286 266.4158 15.73217338  3387,6727.846,91.532,350.725,348.696,0.0
53536.0,STARLINK-4053,PAYLOAD,2022-09-10 12:00:00,15.73238664,0.0001559,53.2166,47.3044,36.6225,352.6325,-0.000218,-0.00031153,0.0,0 STARLINK-4053,1 53536U 22101K   22253.50001157 -.00031153  00000-0 -21800-3 0  9990,2 53536  53.2166  47.3044 0001559  36.6225 352.6325 15.73238664  3434,6727.785,91.531,350.699,348.601,0.0
53536.0,STARLINK-4053,PAYLOAD,2022-09-10 14:00:01,15.73245159,0.0001625,53.2165,46.8926,35.281,106.1936,-0.00063282,-0.00088676,0.0,0 STARLINK-4053,1 53536U 22101K   22253.58334491 -.00088676  00000-0 -63282-3 0  9990,2 53536  53.2165  46.8926 0001625  35.2810 106.1936 15.73245159  1306,6727.766,91.531,350.725,348.538,0.0
53536.0,STARLINK-4053,PAYLOAD,2022-09-10 20:00:01,15.73175825,0.0001798,53.2164,45.65600000000001,29.2997,88.8987,-8.4085e-05,-0.00012392,0.0,0 STARLINK-4053,1 53536U 22101K   22253.83334491 -.00012392  00000-0 -84085-4 0  9995,2 53536  53.2164  45.6560 0001798  29.2997  88.8987 15.73175825  3492,6727.964,91.535,351.039,348.619,0.0
53536.0,STARLINK-4053,PAYLOAD,2022-09-10 22:00:00,15.73202197,0.0001528,53.2172,45.2384,41.9958,188.37,3.5624e-05,4.382e-05,0.0,0 STARLINK-4053,1 53536U 22101K   22253.91667824  .00004382  00000-0  35624-4 0  9996,2 53536  53.2172  45.2384 0001528  41.9958 188.3700 15.73202197  1300,6727.889,91.533,350.782,348.726,0.0
53536.0,STARLINK-4053,PAYLOAD,2022-09-11 12:00:00,15.73252667,0.000161,53.2165,42.356,36.0774,259.958,-0.00065905,-0.00092316,0.0,0 STARLINK-4053,1 53536U 22101K   22254.50001157 -.00092316  00000-0 -65905-3 0  9993,2 53536  53.2165  42.3560 0001610  36.0774 259.9580 15.73252667  3590,6727.745,91.53,350.6930000000001,348.527,0.0
53536.0,STARLINK-4053,PAYLOAD,2022-09-11 14:00:01,15.73232839,0.0001659,53.2165,41.9442,32.0576,16.2346,-0.00035643,-0.00050416,0.0,0 STARLINK-4053,1 53536U 22101K   22254.58334491 -.00050416  00000-0 -35643-3 0  9992,2 53536  53.2165  41.9442 0001659  32.0576  16.2346 15.73232839  1303,6727.802,91.531,350.783,348.55,0.0
53536.0,STARLINK-4053,PAYLOAD,2022-09-11 20:00:01,15.73201208,0.0001876999999999,53.2167,40.7083,26.4696,358.5351,0.00012613,0.00017118,0.0,0 STARLINK-4053,1 53536U 22101K   22254.83334491  .00017118  00000-0  12613-3 0  9992,2 53536  53.2167  40.7083 0001877  26.4696 358.5351 15.73201208  3648,6727.892,91.533,351.02,348.494,0.0
53536.0,STARLINK-4053,PAYLOAD,2022-09-11 22:00:00,15.73222672,0.0001905,53.2165,40.2956,26.7097,110.523,-0.00018719,-0.00026835,0.0,0 STARLINK-4053,1 53536U 22101K   22254.91667824 -.00026835  00000-0 -18719-3 0  9991,2 53536  53.2165  40.2956 0001905  26.7097 110.5230 15.73222672  1301,6727.831,91.532,350.977,348.414,0.0
53536.0,STARLINK-4053,PAYLOAD,2022-09-12 12:00:00,15.73211617,0.0002059,53.2173,37.4075,38.0109,164.8665,-4.1395e-05,-6.43e-05,0.0,0 STARLINK-4053,1 53536U 22101K   22255.50001157 -.00006430  00000-0 -41395-4 0  9994,2 53536  53.2173  37.4075 0002059  38.0109 164.8665 15.73211617  1302,6727.861999999999,91.533,351.112,348.342,0.0
53536.0,STARLINK-4053,PAYLOAD,2022-09-12 22:00:00,15.73251802,0.000226,53.2166,35.347,31.0911,12.9545,-0.00021505,-0.00030763,0.0,0 STARLINK-4053,1 53536U 22101K   22255.91667824 -.00030763  00000-0 -21505-3 0  9994,2 53536  53.2166  35.3470 0002260  31.0911  12.9545 15.73251802  1308,6727.746999999999,91.53,351.1330000000001,348.092,0.0
53536.0,STARLINK-4053,PAYLOAD,2022-09-13 14:00:01,15.73224285,0.0002083,53.2172,32.0473,27.1965,194.7483,-0.0005661,-0.00079414,0.0,0 STARLINK-4053,1 53536U 22101K   22256.58334491 -.00079414  00000-0 -56610-3 0  9990,2 53536  53.2172  32.0473 0002083  27.1965 194.7483 15.73224285  1305,6727.826,91.532,351.092,348.29,0.0
53536.0,STARLINK-4053,PAYLOAD,2022-09-13 16:00:00,15.73195977,0.0002165999999999,53.2172,31.6348,28.0664,306.1188,-0.00026236,-0.00037276,0.0,0 STARLINK-4053,1 53536U 22101K   22256.66667824 -.00037276  00000-0 -26236-3 0  9999,2 53536  53.2172  31.6348 0002166  28.0664 306.1188 15.73195977  3936,6727.906999999997,91.533,351.22900000000016,348.314,0.0
53536.0,STARLINK-4053,PAYLOAD,2022-09-13 20:00:01,15.73171476,0.0002241,53.2168,30.8102,25.1905,173.4837,0.00028223,0.00039127,0.0,0 STARLINK-4053,1 53536U 22101K   22256.83334491  .00039127  00000-0  28223-3 0  9992,2 53536  53.2168  30.8102 0002241  25.1905 173.4837 15.73171476  3967,6727.976,91.535,351.349,348.334,0.0
53536.0,STARLINK-4053,PAYLOAD,2022-09-13 22:00:00,15.73208655,0.0002251999999999,53.2167,30.3968,24.8034,286.0872,-0.00022984,-0.00032768,0.0,0 STARLINK-4053,1 53536U 22101K   22256.91667824 -.00032768  00000-0 -22984-3 0  9994,2 53536  53.2167  30.3968 0002252  24.8034 286.0872 15.73208655  1308,6727.87,91.533,351.251,348.22,0.0
53536.0,STARLINK-4053,PAYLOAD,2022-09-14 04:00:00,15.73138718,0.000207,53.2175,29.16,24.1276,263.4447,0.00067305,0.00094663,0.0,0 STARLINK-4053,1 53536U 22101K   22257.16667824  .00094663  00000-0  67305-3 0  9998,2 53536  53.2175  29.1600 0002070  24.1276 263.4447 15.73138718  4015,6728.07,91.537,351.32800000000015,348.542,0.0
53536.0,STARLINK-4053,PAYLOAD,2022-09-14 12:00:00,15.73161115,0.0002316,53.2175,27.5045,37.3388,339.0906,0.00050234,0.00070359,0.0,0 STARLINK-4053,1 53536U 22101K   22257.50001157  .00070359  00000-0  50234-3 0  9996,2 53536  53.2175  27.5045 0002316  37.3388 339.0906 15.73161115  4065,6728.005999999999,91.535,351.42900000000014,348.31300000000016,0.0
53536.0,STARLINK-4053,PAYLOAD,2022-09-14 14:00:01,15.73240382,0.0002282,53.2175,27.0993,22.5015,106.1746,-3.0247e-05,-4.872e-05,0.0,0 STARLINK-4053,1 53536U 22101K   22257.58334491 -.00004872  00000-0 -30247-4 0  9996,2 53536  53.2175  27.0993 0002282  22.5015 106.1746 15.73240382  1300,6727.78,91.531,351.18,348.11,0.0
53536.0,STARLINK-4053,PAYLOAD,2022-09-14 20:00:01,15.73237195,0.0002372,53.2172,25.8611,20.608,84.8026,-7.5685e-05,-0.00011248,0.0,0 STARLINK-4053,1 53536U 22101K   22257.83334491 -.00011248  00000-0 -75685-4 0  9994,2 53536  53.2172  25.8611 0002372  20.6080  84.8026 15.73237195  4125,6727.7890000000025,91.531,351.25,348.05800000000005,0.0
53536.0,STARLINK-4053,PAYLOAD,2022-09-14 22:00:00,15.73321182,0.0002226,53.2169,25.4477,20.6704,196.9657,-0.0017205999999999,-0.00236696,0.0,0 STARLINK-4053,1 53536U 22101K   22257.91667824 -.00236696  00000-0 -17206-2 0  9991,2 53536  53.2169  25.4477 0002226  20.6704 196.9657 15.73321182  1300,6727.55,91.526,350.912,347.917,0.0
53536.0,STARLINK-4053,PAYLOAD,2022-09-15 04:00:00,15.73059865,0.0002108,53.2174,24.2067,22.898000000000003,171.5267,0.00075322,0.00105796,0.0,0 STARLINK-4053,1 53536U 22101K   22258.16667824  .00105796  00000-0  75322-3 0  9997,2 53536  53.2174  24.2067 0002108  22.8980 171.5267 15.73059865  4177,6728.295,91.541,351.57800000000015,348.741,0.0
53536.0,STARLINK-4053,PAYLOAD,2022-09-15 14:00:01,15.73218766,0.0002374,53.2172,22.1512,19.451,16.118,-8.494600000000001e-05,-0.00012537,0.0,0 STARLINK-4053,1 53536U 22101K   22258.58334491 -.00012537  00000-0 -84946-4 0  9999,2 53536  53.2172  22.1512 0002374  19.4510  16.1180 15.73218766  1300,6727.842,91.532,351.30400000000014,348.1090000000001,0.0
53536.0,STARLINK-4053,PAYLOAD,2022-09-15 22:00:00,15.73239849,0.0002556,53.2172,20.5018,17.6685,106.8397,-0.00035565,-0.00050331,0.0,0 STARLINK-4053,1 53536U 22101K   22258.91667824 -.00050331  00000-0 -35565-3 0  9991,2 53536  53.2172  20.5018 0002556  17.6685 106.8397 15.73239849  4291,6727.781999999997,91.531,351.366,347.927,0.0
53536.0,STARLINK-4053,PAYLOAD,2022-09-16 06:00:00,15.72896036,0.0002494,53.2171,18.8445,25.0851,188.421,0.003021,0.00440615,0.0,0 STARLINK-4053,1 53536U 22101K   22259.25001157  .00440615  00000-0  30210-2 0  9997,2 53536  53.2171  18.8445 0002494  25.0851 188.4210 15.72896036  4345,6728.762,91.551,352.305,348.949,0.0
53536.0,STARLINK-4053,PAYLOAD,2022-09-16 14:00:01,15.73154735,0.0002566,53.2174,17.2027,13.7659,288.6129,-0.0002301,-0.00032732,0.0,0 STARLINK-4053,1 53536U 22101K   22259.58334491 -.00032732  00000-0 -23010-3 0  9993,2 53536  53.2174  17.2027 0002566  13.7659 288.6129 15.73154735  1306,6728.024,91.536,351.616,348.163,0.0
53536.0,STARLINK-4053,PAYLOAD,2022-09-16 22:00:00,15.73154679,0.0002671,53.2171,15.5533,10.3658,20.8655,0.00028031,0.00038829,0.0,0 STARLINK-4053,1 53536U 22101K   22259.91667824  .00038829  00000-0  28031-3 0  9998,2 53536  53.2171  15.5533 0002671  10.3658  20.8655 15.73154679  1302,6728.024,91.536,351.686,348.092,0.0
53536.0,STARLINK-4053,PAYLOAD,2022-09-17 06:00:00,15.73176338,0.0002468,53.2172,13.9021,14.6752,105.5227,0.00042003,0.00058686,0.0,0 STARLINK-4053,1 53536U 22101K   22260.25001157  .00058686  00000-0  42003-3 0  9996,2 53536  53.2172  13.9021 0002468  14.6752 105.5227 15.73176338  4500,6727.9630000000025,91.535,351.48800000000006,348.167,0.0
53536.0,STARLINK-4053,PAYLOAD,2022-09-17 14:00:01,15.73200658,0.0002819,53.2172,12.2546,16.320999999999998,192.819,-9.6877e-05,-0.00014199,0.0,0 STARLINK-4053,1 53536U 22101K   22260.58334491 -.00014199  00000-0 -96877-4 0  9994,2 53536  53.2172  12.2546 0002819  16.3210 192.8190 15.73200658  1308,6727.893,91.533,351.655,347.862,0.0
